0 THORAD DELTA 1 DEB
1 09987U 74089EE  13281.55364705  .00000083  00000-0  81559-3 0  6451
2 09987 101.4914 183.6757 0086469 116.2186 006.1601 12.49836043770266
0 THORAD DELTA 1 DEB
1 09987U 74089EE  13283.55431980  .00000056  00000-0  63922-3 0  6468
2 09987 101.4915 185.6004 0086801 112.2600 008.0899 12.49836069770517
0 THORAD DELTA 1 DEB
1 09987U 74089EE  13285.70441234  .00000121  00000-0  10632-2 0  6473
2 09987 101.4918 187.6685 0087246 107.9733 322.3797 12.49837704770784
0 THORAD DELTA 1 DEB
1 09987U 74089EE  13287.70550770  .00000186  00000-0  14828-2 0  6484
2 09987 101.4917 189.5935 0087629 104.0347 326.2092 12.49838873771034
0 THORAD DELTA 1 DEB
1 09987U 74089EE  13288.98596191  .00000237  00000-0  18150-2 0  6492
2 09987 101.4916 190.8253 0087877 101.5177 327.5529 12.49840552771192
0 THORAD DELTA 1 DEB
1 09987U 74089EE  13290.20533638  .00000226  00000-0  17452-2 0  6501
2 09987 101.4914 191.9983 0088117 099.1304 054.0640 12.49841160771343
0 THORAD DELTA 1 DEB
1 09987U 74089EE  13291.24576140  .00000261  00000-0  19727-2 0  6518
2 09987 101.4912 192.9993 0088329 097.1061 055.3962 12.49843039771478
0 THORAD DELTA 1 DEB
1 09987U 74089EE  13292.65920900  .00000330  00000-0  24163-2 0  6529
2 09987 101.4909 194.3591 0088631 094.3447 295.1375 12.49844236771648
0 THORAD DELTA 1 DEB
1 09987U 74089EE  13294.27988955  .00000329  00000-0  24134-2 0  6530
2 09987 101.4909 195.9181 0088973 091.1916 027.3029 12.49845091771859
